{"type": "FeatureCollection", "features": [ {"type": "Feature", "properties": {"norad_id": 66356, "name": "STARLINK-35851", "group": "last-30-days", "lat": 49.28198055551533, "lon": 73.11511626592566, "alt_km": 390.4879410178073, "timestamp": "2025-12-04T23:34:04.489202+00:00", "meta": {"OBJECT_NAME": "STARLINK-35851", "OBJECT_ID": "2025-254J", "EPOCH": "2025-12-04T18:00:02.000160", "MEAN_MOTION": 15.57503633, "ECCENTRICITY": 0.0001347, "INCLINATION": 53.1591, "RA_OF_ASC_NODE": 314.8252, "ARG_OF_PERICENTER": 103.8655, "MEAN_ANOMALY": 143.8082, "EPHEMERIS_TYPE": 0, "CLASSIFICATION_TYPE": "U", "NORAD_CAT_ID": 66356, "ELEMENT_SET_NO": 999, "REV_AT_EPOCH": 563, "BSTAR": -0.03113, "MEAN_MOTION_DOT": -0.02078806, "MEAN_MOTION_DDOT": 0}, "tle": {"line1": "1 66356U 25254J   25338.75002315 -.02078806  00000+0 -31130-1 0  9999", "line2": "2 66356  53.1591 314.8252 0001347 103.8655 143.8082 15.57503633  5638"}}, "geometry": {"type": "Point", "coordinates": [73.11511626592566, 49.28198055551533]}}, {"type": "Feature", "properties": {"norad_id": 66357, "name": "STARLINK-35817", "group": "last-30-days", "lat": 48.49632707942093, "lon": 75.77673316278677, "alt_km": 390.61354387777374, "timestamp": "2025-12-04T23:34:04.489213+00:00", "meta": {"OBJECT_NAME": "STARLINK-35817", "OBJECT_ID": "2025-254K", "EPOCH": "2025-12-04T18:00:02.000160", "MEAN_MOTION": 15.57501937, "ECCENTRICITY": 0.0001334, "INCLINATION": 53.1591, "RA_OF_ASC_NODE": 314.8212, "ARG_OF_PERICENTER": 104.4095, "MEAN_ANOMALY": 145.1824, "EPHEMERIS_TYPE": 0, "CLASSIFICATION_TYPE": "U", "NORAD_CAT_ID": 66357, "ELEMENT_SET_NO": 999, "REV_AT_EPOCH": 563, "BSTAR": -0.031102, "MEAN_MOTION_DOT": -0.02077008, "MEAN_MOTION_DDOT": 0}, "tle": {"line1": "1 66357U 25254K   25338.75002315 -.02077008  00000+0 -31102-1 0  9992", "line2": "2 66357  53.1591 314.8212 0001334 104.4095 145.1824 15.57501937  5630"}}, "geometry": {"type": "Point", "coordinates": [75.77673316278677, 48.49632707942093]}}, {"type": "Feature", "properties": {"norad_id": 66358, "name": "STARLINK-35807", "group": "last-30-days", "lat": 47.65066752462076, "lon": 78.35418882917791, "alt_km": 390.75471526530055, "timestamp": "2025-12-04T23:34:04.489223+00:00", "meta": {"OBJECT_NAME": "STARLINK-35807", "OBJECT_ID": "2025-254L", "EPOCH": "2025-12-04T18:00:02.000160", "MEAN_MOTION": 15.57500257, "ECCENTRICITY": 0.0001323, "INCLINATION": 53.159, "RA_OF_ASC_NODE": 314.8166, "ARG_OF_PERICENTER": 102.5715, "MEAN_ANOMALY": 148.9387, "EPHEMERIS_TYPE": 0, "CLASSIFICATION_TYPE": "U", "NORAD_CAT_ID": 66358, "ELEMENT_SET_NO": 999, "REV_AT_EPOCH": 563, "BSTAR": -0.031077, "MEAN_MOTION_DOT": -0.0207537, "MEAN_MOTION_DDOT": 0}, "tle": {"line1": "1 66358U 25254L   25338.75002315 -.02075370  00000+0 -31077-1 0  9994", "line2": "2 66358  53.1590 314.8166 0001323 102.5715 148.9387 15.57500257  5633"}}, "geometry": {"type": "Point", "coordinates": [78.35418882917791, 47.65066752462076]}}, {"type": "Feature", "properties": {"norad_id": 66359, "name": "STARLINK-35805", "group": "last-30-days", "lat": 46.75073461240998, "lon": 80.84378307912687, "alt_km": 390.85907023423715, "timestamp": "2025-12-04T23:34:04.489234+00:00", "meta": {"OBJECT_NAME": "STARLINK-35805", "OBJECT_ID": "2025-254M", "EPOCH": "2025-12-04T18:00:02.000160", "MEAN_MOTION": 15.57505938, "ECCENTRICITY": 0.0001337, "INCLINATION": 53.159, "RA_OF_ASC_NODE": 314.8135, "ARG_OF_PERICENTER": 108.758, "MEAN_ANOMALY": 144.6646, "EPHEMERIS_TYPE": 0, "CLASSIFICATION_TYPE": "U", "NORAD_CAT_ID": 66359, "ELEMENT_SET_NO": 999, "REV_AT_EPOCH": 560, "BSTAR": -0.031162, "MEAN_MOTION_DOT": -0.02080842, "MEAN_MOTION_DDOT": 0}, "tle": {"line1": "1 66359U 25254M   25338.75002315 -.02080842  00000+0 -31162-1 0  9990", "line2": "2 66359  53.1590 314.8135 0001337 108.7580 144.6646 15.57505938  5602"}}, "geometry": {"type": "Point", "coordinates": [80.84378307912687, 46.75073461240998]}}, {"type": "Feature", "properties": {"norad_id": 66360, "name": "STARLINK-35823", "group": "last-30-days", "lat": 44.79421823702209, "lon": 85.5766311380156, "alt_km": 391.2204633451656, "timestamp": "2025-12-04T23:34:04.489245+00:00", "meta": {"OBJECT_NAME": "STARLINK-35823", "OBJECT_ID": "2025-254N", "EPOCH": "2025-12-04T18:00:02.000160", "MEAN_MOTION": 15.57504714, "ECCENTRICITY": 0.0001258, "INCLINATION": 53.1592, "RA_OF_ASC_NODE": 314.8048, "ARG_OF_PERICENTER": 107.4083, "MEAN_ANOMALY": 149.8498, "EPHEMERIS_TYPE": 0, "CLASSIFICATION_TYPE": "U", "NORAD_CAT_ID": 66360, "ELEMENT_SET_NO": 999, "REV_AT_EPOCH": 563, "BSTAR": -0.031152, "MEAN_MOTION_DOT": -0.02080103, "MEAN_MOTION_DDOT": 0}, "tle": {"line1": "1 66360U 25254N   25338.75002315 -.02080103  00000+0 -31152-1 0  9991", "line2": "2 66360  53.1592 314.8048 0001258 107.4083 149.8498 15.57504714  5631"}}, "geometry": {"type": "Point", "coordinates": [85.5766311380156, 44.79421823702209]}}, {"type": "Feature", "properties": {"norad_id": 66361, "name": "STARLINK-35813", "group": "last-30-days", "lat": 45.79713393438287, "lon": 83.25193001806765, "alt_km": 391.0138154173319, "timestamp": "2025-12-04T23:34:04.489255+00:00", "meta": {"OBJECT_NAME": "STARLINK-35813", "OBJECT_ID": "2025-254P", "EPOCH": "2025-12-04T18:00:02.000160", "MEAN_MOTION": 15.57503067, "ECCENTRICITY": 0.0001326, "INCLINATION": 53.1591, "RA_OF_ASC_NODE": 314.8096, "ARG_OF_PERICENTER": 109.3609, "MEAN_ANOMALY": 145.9807, "EPHEMERIS_TYPE": 0, "CLASSIFICATION_TYPE": "U", "NORAD_CAT_ID": 66361, "ELEMENT_SET_NO": 999, "REV_AT_EPOCH": 563, "BSTAR": -0.031116, "MEAN_MOTION_DOT": -0.02077935, "MEAN_MOTION_DDOT": 0}, "tle": {"line1": "1 66361U 25254P   25338.75002315 -.02077935  00000+0 -31116-1 0  9991", "line2": "2 66361  53.1591 314.8096 0001326 109.3609 145.9807 15.57503067  5636"}}, "geometry": {"type": "Point", "coordinates": [83.25193001806765, 45.79713393438287]}}, {"type": "Feature", "properties": {"norad_id": 66362, "name": "STARLINK-35822", "group": "last-30-days", "lat": 42.65489054366727, "lon": 89.98478931934676, "alt_km": 391.5573483618855, "timestamp": "2025-12-04T23:34:04.489265+00:00", "meta": {"OBJECT_NAME": "STARLINK-35822", "OBJECT_ID": "2025-254Q", "EPOCH": "2025-12-04T18:00:02.000160", "MEAN_MOTION": 15.57501981, "ECCENTRICITY": 0.00013, "INCLINATION": 53.1591, "RA_OF_ASC_NODE": 314.7971, "ARG_OF_PERICENTER": 102.7908, "MEAN_ANOMALY": 158.3021, "EPHEMERIS_TYPE": 0, "CLASSIFICATION_TYPE": "U", "NORAD_CAT_ID": 66362, "ELEMENT_SET_NO": 999, "REV_AT_EPOCH": 563, "BSTAR": -0.031106, "MEAN_MOTION_DOT": -0.02077206, "MEAN_MOTION_DDOT": 0}, "tle": {"line1": "1 66362U 25254Q   25338.75002315 -.02077206  00000+0 -31106-1 0  9992", "line2": "2 66362  53.1591 314.7971 0001300 102.7908 158.3021 15.57501981  5638"}}, "geometry": {"type": "Point", "coordinates": [89.98478931934676, 42.65489054366727]}}, {"type": "Feature", "properties": {"norad_id": 66363, "name": "STARLINK-35806", "group": "last-30-days", "lat": 43.74523437915522, "lon": 87.82115665262788, "alt_km": 391.38679807051085, "timestamp": "2025-12-04T23:34:04.489277+00:00", "meta": {"OBJECT_NAME": "STARLINK-35806", "OBJECT_ID": "2025-254R", "EPOCH": "2025-12-04T18:00:02.000160", "MEAN_MOTION": 15.57501163, "ECCENTRICITY": 0.0001297, "INCLINATION": 53.159, "RA_OF_ASC_NODE": 314.8011, "ARG_OF_PERICENTER": 102.0856, "MEAN_ANOMALY": 157.0912, "EPHEMERIS_TYPE": 0, "CLASSIFICATION_TYPE": "U", "NORAD_CAT_ID": 66363, "ELEMENT_SET_NO": 999, "REV_AT_EPOCH": 561, "BSTAR": -0.031093, "MEAN_MOTION_DOT": -0.02076405, "MEAN_MOTION_DDOT": 0}, "tle": {"line1": "1 66363U 25254R   25338.75002315 -.02076405  00000+0 -31093-1 0  9998", "line2": "2 66363  53.1590 314.8011 0001297 102.0856 157.0912 15.57501163  5619"}}, "geometry": {"type": "Point", "coordinates": [87.82115665262788, 43.74523437915522]}}, {"type": "Feature", "properties": {"norad_id": 66364, "name": "STARLINK-35797", "group": "last-30-days", "lat": 41.525128830529155, "lon": 92.07223014401289, "alt_km": 391.74784569496296, "timestamp": "2025-12-04T23:34:04.489288+00:00", "meta": {"OBJECT_NAME": "STARLINK-35797", "OBJECT_ID": "2025-254S", "EPOCH": "2025-12-04T18:00:02.000160", "MEAN_MOTION": 15.57502355, "ECCENTRICITY": 0.000128, "INCLINATION": 53.1594, "RA_OF_ASC_NODE": 314.7926, "ARG_OF_PERICENTER": 104.2788, "MEAN_ANOMALY": 158.731, "EPHEMERIS_TYPE": 0, "CLASSIFICATION_TYPE": "U", "NORAD_CAT_ID": 66364, "ELEMENT_SET_NO": 999, "REV_AT_EPOCH": 563, "BSTAR": -0.031114, "MEAN_MOTION_DOT": -0.02077696, "MEAN_MOTION_DDOT": 0}, "tle": {"line1": "1 66364U 25254S   25338.75002315 -.02077696  00000+0 -31114-1 0  9996", "line2": "2 66364  53.1594 314.7926 0001280 104.2788 158.7310 15.57502355  5634"}}, "geometry": {"type": "Point", "coordinates": [92.07223014401289, 41.525128830529155]}}, {"type": "Feature", "properties": {"norad_id": 66365, "name": "STARLINK-35827", "group": "last-30-days", "lat": 39.15773858466256, "lon": 96.03357219011265, "alt_km": 392.1707087735458, "timestamp": "2025-12-04T23:34:04.489298+00:00", "meta": {"OBJECT_NAME": "STARLINK-35827", "OBJECT_ID": "2025-254T", "EPOCH": "2025-12-04T18:00:02.000160", "MEAN_MOTION": 15.57502861, "ECCENTRICITY": 0.0001254, "INCLINATION": 53.1594, "RA_OF_ASC_NODE": 314.7854, "ARG_OF_PERICENTER": 102.4713, "MEAN_ANOMALY": 164.372, "EPHEMERIS_TYPE": 0, "CLASSIFICATION_TYPE": "U", "NORAD_CAT_ID": 66365, "ELEMENT_SET_NO": 999, "REV_AT_EPOCH": 561, "BSTAR": -0.031123, "MEAN_MOTION_DOT": -0.02078295, "MEAN_MOTION_DDOT": 0}, "tle": {"line1": "1 66365U 25254T   25338.75002315 -.02078295  00000+0 -31123-1 0  9993", "line2": "2 66365  53.1594 314.7854 0001254 102.4713 164.3720 15.57502861  5612"}}, "geometry": {"type": "Point", "coordinates": [96.03357219011265, 39.15773858466256]}}]}